[{"OBJECT_NAME":"STARLINK-32426","OBJECT_ID":"2024-193W","EPOCH":"2026-03-09T12:03:19.501920","MEAN_MOTION":15.30175538,"ECCENTRICITY":0.00012591,"INCLINATION":53.1606,"RA_OF_ASC_NODE":92.1809,"ARG_OF_PERICENTER":78.047,"MEAN_ANOMALY":282.0672,"EPHEMERIS_TYPE":0,"CLASSIFICATION_TYPE":"U","NORAD_CAT_ID":61681,"ELEMENT_SET_NO":999,"REV_AT_EPOCH":7649,"BSTAR":-6.1997625e-5,"MEAN_MOTION_DOT":-2.193e-5,"MEAN_MOTION_DDOT":0},{"OBJECT_NAME":"OBJECT BE","OBJECT_ID":"2025-313BE","EPOCH":"2026-03-09T16:43:59.380320","MEAN_MOTION":15.29801687,"ECCENTRICITY":0.00072083,"INCLINATION":97.3989,"RA_OF_ASC_NODE":145.3568,"ARG_OF_PERICENTER":335.3714,"MEAN_ANOMALY":24.7181,"EPHEMERIS_TYPE":0,"CLASSIFICATION_TYPE":"U","NORAD_CAT_ID":67482,"ELEMENT_SET_NO":999,"REV_AT_EPOCH":797,"BSTAR":0.0026504328,"MEAN_MOTION_DOT":0.00077178,"MEAN_MOTION_DDOT":0}]
